NORAD_CAT_ID,OBJECT_NAME,OBJECT_TYPE,EPOCH,MEAN_MOTION,ECCENTRICITY,INCLINATION,RA_OF_ASC_NODE,ARG_OF_PERICENTER,MEAN_ANOMALY,BSTAR,MEAN_MOTION_DOT,MEAN_MOTION_DDOT,TLE_LINE0,TLE_LINE1,TLE_LINE2,SEMIMAJOR_AXIS,PERIOD,APOGEE,PERIGEE,DECAYED
54174.0,STARLINK-5248,PAYLOAD,2023-12-15 05:10:32,15.08838504,0.000161,53.2185,9.6661,102.204,257.9133,2.1298e-05,5.1e-07,0.0,0 STARLINK-5248,1 54174U 22141T   23349.21564901  .00000051  00000-0  21298-4 0  9992,2 54174  53.2185   9.6661 0001610 102.2040 257.9133 15.08838504 63519,6917.885,95.438,540.864,538.636,0.0
54174.0,STARLINK-5248,PAYLOAD,2023-12-15 06:45:55,15.08838915,0.00016,53.2184,9.3687,100.3261,259.7912,2.4592e-05,1.03e-06,0.0,0 STARLINK-5248,1 54174U 22141T   23349.28188882  .00000103  00000-0  24592-4 0  9997,2 54174  53.2184   9.3687 0001600 100.3261 259.7912 15.08838915 63539,6917.884,95.438,540.856,538.642,0.0
54174.0,STARLINK-5248,PAYLOAD,2023-12-16 06:36:43,15.08830755,0.0001835,53.2193,4.9156,118.4343,241.6834,-5.7581e-05,-1.204e-05,0.0,0 STARLINK-5248,1 54174U 22141T   23350.27550036 -.00001204  00000-0 -57581-4 0  9991,2 54174  53.2193   4.9156 0001835 118.4343 241.6834 15.08830755 63674,6917.909,95.438,541.043,538.504,0.0
54174.0,STARLINK-5248,PAYLOAD,2023-12-17 06:27:29,15.08839565,0.000175,53.2188,0.4531,121.1747,238.9417,-2.5352e-06,-3.28e-06,0.0,0 STARLINK-5248,1 54174U 22141T   23351.26909676 -.00000328  00000-0 -25352-5 0  9997,2 54174  53.2188   0.4531 0001750 121.1747 238.9417 15.08839565 63822,6917.882,95.438,540.957,538.536,0.0
54174.0,STARLINK-5248,PAYLOAD,2023-12-18 07:53:39,15.08847592,0.0001301,53.2177,355.6912,85.2018,274.9123,0.00016051,2.268e-05,0.0,0 STARLINK-5248,1 54174U 22141T   23352.32892869  .00002268  00000-0  16051-3 0  9997,2 54174  53.2177 355.6912 0001301  85.2018 274.9123 15.08847592 63981,6917.857,95.437,540.622,538.822,0.0
54174.0,STARLINK-5248,PAYLOAD,2023-12-19 07:44:27,15.08837998,0.0001498,53.218,351.2339,106.9197,253.196,-1.1022e-05,-4.63e-06,0.0,0 STARLINK-5248,1 54174U 22141T   23353.32254269 -.00000463  00000-0 -11022-4 0  9995,2 54174  53.2180 351.2339 0001498 106.9197 253.1960 15.08837998 64131,6917.887,95.438,540.788,538.715,0.0
54174.0,STARLINK-5248,PAYLOAD,2023-12-20 05:59:51,15.08839403,0.0001463,53.218,347.0805,102.093,258.0226,-2.9419e-05,-7.56e-06,0.0,0 STARLINK-5248,1 54174U 22141T   23354.24990625 -.00000756  00000-0 -29419-4 0  9994,2 54174  53.2180 347.0805 0001463 102.0930 258.0226 15.08839403 64284,6917.882,95.438,540.759,538.735,0.0
54174.0,STARLINK-5248,PAYLOAD,2023-12-21 04:15:14,15.08846812,0.0001606,53.2186,342.9096,120.263,239.8521,0.0002053,2.981e-05,0.0,0 STARLINK-5248,1 54174U 22141T   23355.17725312  .00002981  00000-0  20530-3 0  9990,2 54174  53.2186 342.9096 0001606 120.2630 239.8521 15.08846812 64416,6917.86,95.437,540.836,538.614,0.0
54174.0,STARLINK-5248,PAYLOAD,2023-12-21 05:50:38,15.08845585,0.0001777,53.2177,342.6153,86.2464,273.8731,0.00020269,2.94e-05,0.0,0 STARLINK-5248,1 54174U 22141T   23355.24349735  .00002940  00000-0  20269-3 0  9993,2 54174  53.2177 342.6153 0001777  86.2464 273.8731 15.08845585 64431,6917.863,95.437,540.958,538.499,0.0
54174.0,STARLINK-5248,PAYLOAD,2023-12-22 04:06:02,15.08839146,0.0001513,53.2186,338.4352,68.4549,291.6604,7.8381e-05,9.6e-06,0.0,0 STARLINK-5248,1 54174U 22141T   23356.17086534  .00000960  00000-0  78381-4 0  9990,2 54174  53.2186 338.4352 0001513  68.4549 291.6604 15.08839146 64566,6917.883,95.438,540.795,538.701,0.0
54174.0,STARLINK-5248,PAYLOAD,2023-12-22 05:41:25,15.08839837,0.0001488,53.2184,338.141,102.1017,258.0142,9.7938e-05,1.271e-05,0.0,0 STARLINK-5248,1 54174U 22141T   23356.23710396  .00001271  00000-0  97938-4 0  9992,2 54174  53.2184 338.1410 0001488 102.1017 258.0142 15.08839837 64586,6917.881,95.438,540.775,538.717,0.0
54174.0,STARLINK-5248,PAYLOAD,2023-12-23 08:42:58,15.08847358,0.0001626,53.2174,333.0881,76.7447,283.3726,-4.5365e-05,-1.01e-05,0.0,0 STARLINK-5248,1 54174U 22141T   23357.36318256 -.00001010  00000-0 -45365-4 0  9996,2 54174  53.2174 333.0881 0001626  76.7447 283.3726 15.08847358 64742,6917.858,95.437,540.848,538.598,0.0
54174.0,STARLINK-5248,PAYLOAD,2023-12-24 08:33:45,15.08847785,0.0001382,53.2177,328.6254,107.9157,252.1986,0.00017816,2.549e-05,0.0,0 STARLINK-5248,1 54174U 22141T   23358.35678031  .00002549  00000-0  17816-3 0  9991,2 54174  53.2177 328.6254 0001382 107.9157 252.1986 15.08847785 64907,6917.857,95.437,540.678,538.766,0.0
54174.0,STARLINK-5248,PAYLOAD,2023-12-25 03:38:23,15.08840179,0.0001713,53.2174,325.0537,118.8866,241.2298,5.7118e-05,6.21e-06,0.0,0 STARLINK-5248,1 54174U 22141T   23359.15166524  .00000621  00000-0  57118-4 0  9998,2 54174  53.2174 325.0537 0001713 118.8866 241.2298 15.08840179 65013,6917.88,95.438,540.93,538.56,0.0
54174.0,STARLINK-5248,PAYLOAD,2023-12-25 05:13:47,15.08838891,0.0001543,53.2174,324.7613,70.596,289.5198,6.6411e-05,7.69e-06,0.0,0 STARLINK-5248,1 54174U 22141T   23359.21790912  .00000769  00000-0  66411-4 0  9998,2 54174  53.2174 324.7613 0001543  70.5960 289.5198 15.08838891 65038,6917.884,95.438,540.816,538.681,0.0
54174.0,STARLINK-5248,PAYLOAD,2023-12-25 21:07:39,15.08834868,0.0001731,53.2186,321.7942,65.6139,294.5033,6.8584e-05,8.03e-06,0.0,0 STARLINK-5248,1 54174U 22141T   23359.88031392  .00000803  00000-0  68584-4 0  9993,2 54174  53.2186 321.7942 0001731  65.6139 294.5033 15.08834868 65130,6917.896,95.438,540.959,538.564,0.0
54174.0,STARLINK-5248,PAYLOAD,2023-12-26 03:29:11,15.08839539,0.0001731,53.2184,320.606,65.6472,294.47,3.185e-05,2.19e-06,0.0,0 STARLINK-5248,1 54174U 22141T   23360.14527219  .00000219  00000-0  31850-4 0  9999,2 54174  53.2184 320.6060 0001731  65.6472 294.4700 15.08839539 65160,6917.882,95.438,540.944,538.549,0.0
54174.0,STARLINK-5248,PAYLOAD,2023-12-26 06:39:57,15.08842291,0.0001739,53.2185,320.0104,68.2698,291.8479,9.433e-05,1.214e-05,0.0,0 STARLINK-5248,1 54174U 22141T   23360.27775124  .00001214  00000-0  94330-4 0  9991,2 54174  53.2185 320.0104 0001739  68.2698 291.8479 15.08842291 65197,6917.873,95.437,540.941,538.535,0.0
54174.0,STARLINK-5248,PAYLOAD,2023-12-27 04:55:22,15.08824771,0.0002076,53.2189,315.848,69.2499,290.8715,0.00099329,0.00015549,0.0,0 STARLINK-5248,1 54174U 22141T   23361.20512339  .00015549  00000-0  99329-3 0  9990,2 54174  53.2189 315.8480 0002076  69.2499 290.8715 15.08824771 65325,6917.927,95.439,541.228,538.356,0.0
54174.0,STARLINK-5248,PAYLOAD,2023-12-27 20:49:13,15.08839591,0.0001661,53.2189,312.8734,94.8922,265.2259,6.8897e-05,8.09e-06,0.0,0 STARLINK-5248,1 54174U 22141T   23361.86751177  .00000809  00000-0  68897-4 0  9997,2 54174  53.2189 312.8734 0001661  94.8922 265.2259 15.08839591 65435,6917.882,95.438,540.896,538.598,0.0
54174.0,STARLINK-5248,PAYLOAD,2023-12-28 06:21:31,15.08845328,0.0001598,53.2179,311.0867,88.9644,271.1531,0.00010328,1.356e-05,0.0,0 STARLINK-5248,1 54174U 22141T   23362.26495010  .00001356  00000-0  10328-3 0  9996,2 54174  53.2179 311.0867 0001598  88.9644 271.1531 15.08845328 65485,6917.864,95.437,540.835,538.624,0.0
54174.0,STARLINK-5248,PAYLOAD,2023-12-29 06:12:18,15.088496,0.0001658,53.2179,306.6248,105.2056,254.9119,0.00011549,1.551e-05,0.0,0 STARLINK-5248,1 54174U 22141T   23363.25854712  .00001551  00000-0  11549-3 0  9997,2 54174  53.2179 306.6248 0001658 105.2056 254.9119 15.08849600 65641,6917.851,95.437,540.863,538.569,0.0
54174.0,STARLINK-5248,PAYLOAD,2023-12-30 01:16:56,15.08839284,0.0001576,53.2177,303.0553,100.2805,259.8364,3.1776e-05,2.18e-06,0.0,0 STARLINK-5248,1 54174U 22141T   23364.05343274  .00000218  00000-0  31776-4 0  9996,2 54174  53.2177 303.0553 0001576 100.2805 259.8364 15.08839284 65750,6917.883,95.438,540.838,538.657,0.0
54174.0,STARLINK-5248,PAYLOAD,2023-12-30 06:03:05,15.08841816,0.000154,53.2181,302.1627,109.8904,250.2254,5.4829e-05,5.85e-06,0.0,0 STARLINK-5248,1 54174U 22141T   23364.25215075  .00000585  00000-0  54829-4 0  9996,2 54174  53.2181 302.1627 0001540 109.8904 250.2254 15.08841816 65794,6917.875,95.437,540.805,538.674,0.0
54174.0,STARLINK-5248,PAYLOAD,2023-12-31 02:43:06,15.08843835,0.0001488,53.2181,298.2971,103.6614,256.4544,2.3392e-07,-2.84e-06,0.0,0 STARLINK-5248,1 54174U 22141T   23365.11327124 -.00000284  00000-0  23392-6 0  9991,2 54174  53.2181 298.2971 0001488 103.6614 256.4544 15.08843835 65919,6917.869,95.437,540.763,538.704,0.0
54174.0,STARLINK-5248,PAYLOAD,2023-12-31 18:36:58,15.08835832,0.0001477,53.2184,295.331,93.9869,266.1292,9.163e-05,1.17e-05,0.0,0 STARLINK-5248,1 54174U 22141T   23365.77567567  .00001170  00000-0  91630-4 0  9992,2 54174  53.2184 295.3310 0001477  93.9869 266.1292 15.08835832 66027,6917.893,95.438,540.78,538.736,0.0
54174.0,STARLINK-5248,PAYLOAD,2024-01-01 02:33:54,15.08836209,0.0001507,53.2181,293.8403,100.8563,259.2599,-3.6672e-06,-3.46e-06,0.0,0 STARLINK-5248,1 54174U 22141T   24001.10687887 -.00000346  00000-0 -36672-5 0  9997,2 54174  53.2181 293.8403 0001507 100.8563 259.2599 15.08836209 66069,6917.892,95.438,540.8,538.714,0.0
54174.0,STARLINK-5248,PAYLOAD,2024-01-01 05:44:40,15.08837239,0.0001512,53.218,293.2449,100.9358,259.1804,1.884e-05,1.2e-07,0.0,0 STARLINK-5248,1 54174U 22141T   24001.23935817  .00000012  00000-0  18840-4 0  9994,2 54174  53.2180 293.2449 0001512 100.9358 259.1804 15.08837239 66096,6917.889,95.438,540.8,538.708,0.0
54174.0,STARLINK-5248,PAYLOAD,2024-01-02 02:24:40,15.08850597,0.0001365,53.2176,289.379,86.6074,273.5074,0.00011671,1.571e-05,0.0,0 STARLINK-5248,1 54174U 22141T   24002.10046848  .00001571  00000-0  11671-3 0  9993,2 54174  53.2176 289.3790 0001365  86.6074 273.5074 15.08850597 66212,6917.848,95.437,540.657,538.769,0.0
54174.0,STARLINK-5248,PAYLOAD,2024-01-02 04:00:03,15.08852572,0.0001472,53.2184,289.0817,100.6391,259.4767,0.00016005,2.261e-05,0.0,0 STARLINK-5248,1 54174U 22141T   24002.16670614  .00002261  00000-0  16005-3 0  9996,2 54174  53.2184 289.0817 0001472 100.6391 259.4767 15.08852572 66235,6917.842,95.437,540.725,538.689,0.0
